[
    {
        "Altitude(m)": 567296.7817866858,
        "Argument of Periapsis(deg)": -0.007534386927657468,
        "Eccentricity": 0.0,
        "Inclination(deg)": 97.0,
        "Latitude(deg)": 30.300294143201164,
        "Longitude(deg)": -14.85319133234052,
        "Mean Anomaly(deg)": 30.504747756395815,
        "RAAN(deg)": 90.00198235120617,
        "Satellite Name": "Starlink Shell 3 1761",
        "Satellite Number": 1761,
        "Semi-Major Axis(m)": 6938478.169268562,
        "Time(s)": 190
    },
    {
        "Altitude(m)": 567399.6672444,
        "Argument of Periapsis(deg)": -0.007930933608060494,
        "Eccentricity": 0.0,
        "Inclination(deg)": 97.0,
        "Latitude(deg)": 30.921680773635142,
        "Longitude(deg)": -14.997582117064045,
        "Mean Anomaly(deg)": 31.130223954100884,
        "RAAN(deg)": 90.0020866854802,
        "Satellite Name": "Starlink Shell 3 1761",
        "Satellite Number": 1761,
        "Semi-Major Axis(m)": 6938478.169268562,
        "Time(s)": 200
    },
    {
        "Altitude(m)": 567505.0062099375,
        "Argument of Periapsis(deg)": -0.008327480288463517,
        "Eccentricity": 0.0,
        "Inclination(deg)": 97.0,
        "Latitude(deg)": 31.54292176312176,
        "Longitude(deg)": -15.143305281525887,
        "Mean Anomaly(deg)": 31.755700151805918,
        "RAAN(deg)": 90.00219101975419,
        "Satellite Name": "Starlink Shell 3 1761",
        "Satellite Number": 1761,
        "Semi-Major Axis(m)": 6938478.169268562,
        "Time(s)": 210
    },
    {
        "Altitude(m)": 567612.7231170047,
        "Argument of Periapsis(deg)": -0.008724026968866542,
        "Eccentricity": 0.0,
        "Inclination(deg)": 97.0,
        "Latitude(deg)": 32.16401306085425,
        "Longitude(deg)": -15.290411696677152,
        "Mean Anomaly(deg)": 32.38117634951094,
        "RAAN(deg)": 90.00229535402819,
        "Satellite Name": "Starlink Shell 3 1761",
        "Satellite Number": 1761,
        "Semi-Major Axis(m)": 6938478.169268562,
        "Time(s)": 220
    },
    {
        "Altitude(m)": 567722.7414429802,
        "Argument of Periapsis(deg)": -0.009120573649269567,
        "Eccentricity": 0.0,
        "Inclination(deg)": 97.0,
        "Latitude(deg)": 32.784950529159694,
        "Longitude(deg)": -15.438954222664643,
        "Mean Anomaly(deg)": 33.00665254721601,
        "RAAN(deg)": 90.0023996883022,
        "Satellite Name": "Starlink Shell 3 1761",
        "Satellite Number": 1761,
        "Semi-Major Axis(m)": 6938478.169268562,
        "Time(s)": 230
    },
    {
        "Altitude(m)": 567834.9837494928,
        "Argument of Periapsis(deg)": -0.009517120329672592,
        "Eccentricity": 0.0,
        "Inclination(deg)": 97.0,
        "Latitude(deg)": 33.405729936944525,
        "Longitude(deg)": -15.588987315773204,
        "Mean Anomaly(deg)": 33.63212874492103,
        "RAAN(deg)": 90.0025040225762,
        "Satellite Name": "Starlink Shell 3 1761",
        "Satellite Number": 1761,
        "Semi-Major Axis(m)": 6938478.169268562,
        "Time(s)": 240
    },
    {
        "Altitude(m)": 567949.3717234371,
        "Argument of Periapsis(deg)": -0.009913667010075618,
        "Eccentricity": 0.0,
        "Inclination(deg)": 97.0,
        "Latitude(deg)": 34.02634695267222,
        "Longitude(deg)": -15.74056815532635,
        "Mean Anomaly(deg)": 34.2576049426261,
        "RAAN(deg)": 90.00260835685023,
        "Satellite Name": "Starlink Shell 3 1761",
        "Satellite Number": 1761,
        "Semi-Major Axis(m)": 6938478.169268562,
        "Time(s)": 250
    },
    {
        "Altitude(m)": 568065.8262183244,
        "Argument of Periapsis(deg)": -0.010310213690478642,
        "Eccentricity": 0.0,
        "Inclination(deg)": 97.0,
        "Latitude(deg)": 34.64679713684265,
        "Longitude(deg)": -15.893756265342814,
        "Mean Anomaly(deg)": 34.88308114033112,
        "RAAN(deg)": 90.00271269112423,
        "Satellite Name": "Starlink Shell 3 1761",
        "Satellite Number": 1761,
        "Semi-Major Axis(m)": 6938478.169268562,
        "Time(s)": 260
    },
    {
        "Altitude(m)": 568184.267295963,
        "Argument of Periapsis(deg)": -0.010706760370881667,
        "Eccentricity": 0.0,
        "Inclination(deg)": 97.0,
        "Latitude(deg)": 35.267075933934365,
        "Longitude(deg)": -16.04861314441305,
        "Mean Anomaly(deg)": 35.508557338036184,
        "RAAN(deg)": 90.00281702539823,
        "Satellite Name": "Starlink Shell 3 1761",
        "Satellite Number": 1761,
        "Semi-Major Axis(m)": 6938478.169268562,
        "Time(s)": 270
    },
    {
        "Altitude(m)": 568304.6142684998,
        "Argument of Periapsis(deg)": -0.011103307051284692,
        "Eccentricity": 0.0,
        "Inclination(deg)": 97.0,
        "Latitude(deg)": 35.8871786637641,
        "Longitude(deg)": -16.205203417310344,
        "Mean Anomaly(deg)": 36.13403353574123,
        "RAAN(deg)": 90.00292135967226,
        "Satellite Name": "Starlink Shell 3 1761",
        "Satellite Number": 1761,
        "Semi-Major Axis(m)": 6938478.169268562,
        "Time(s)": 280
    },
    {
        "Altitude(m)": 568426.7857406994,
        "Argument of Periapsis(deg)": -0.011499853731687715,
        "Eccentricity": 0.0,
        "Inclination(deg)": 97.0,
        "Latitude(deg)": 36.507100512225804,
        "Longitude(deg)": -16.363594483291795,
        "Mean Anomaly(deg)": 36.75950973344625,
        "RAAN(deg)": 90.00302569394626,
        "Satellite Name": "Starlink Shell 3 1761",
        "Satellite Number": 1761,
        "Semi-Major Axis(m)": 6938478.169268562,
        "Time(s)": 290
    },
    {
        "Altitude(m)": 568550.6996525628,
        "Argument of Periapsis(deg)": -0.011896400412090741,
        "Eccentricity": 0.0,
        "Inclination(deg)": 97.0,
        "Latitude(deg)": 37.12683652135656,
        "Longitude(deg)": -16.523856174724116,
        "Mean Anomaly(deg)": 37.3849859311513,
        "RAAN(deg)": 90.00313002822027,
        "Satellite Name": "Starlink Shell 3 1761",
        "Satellite Number": 1761,
        "Semi-Major Axis(m)": 6938478.169268562,
        "Time(s)": 300
    },
    {
        "Altitude(m)": 568676.2733221378,
        "Argument of Periapsis(deg)": -0.012292947092493765,
        "Eccentricity": 0.0,
        "Inclination(deg)": 97.0,
        "Latitude(deg)": 37.74638157867402,
        "Longitude(deg)": -16.68606193973876,
        "Mean Anomaly(deg)": 38.01046212885637,
        "RAAN(deg)": 90.0032343624943,
        "Satellite Name": "Starlink Shell 3 1761",
        "Satellite Number": 1761,
        "Semi-Major Axis(m)": 6938478.169268562,
        "Time(s)": 310
    },
    {
        "Altitude(m)": 568803.4234885925,
        "Argument of Periapsis(deg)": -0.012689493772896788,
        "Eccentricity": 0.0,
        "Inclination(deg)": 97.0,
        "Latitude(deg)": 38.36573040573207,
        "Longitude(deg)": -16.850288524080167,
        "Mean Anomaly(deg)": 38.63593832656139,
        "RAAN(deg)": 90.0033386967683,
        "Satellite Name": "Starlink Shell 3 1761",
        "Satellite Number": 1761,
        "Semi-Major Axis(m)": 6938478.169268562,
        "Time(s)": 320
    },
    {
        "Altitude(m)": 568932.0663554901,
        "Argument of Periapsis(deg)": -0.013086040453299813,
        "Eccentricity": 0.0,
        "Inclination(deg)": 97.0,
        "Latitude(deg)": 38.98487754582849,
        "Longitude(deg)": -17.016615666012544,
        "Mean Anomaly(deg)": 39.26141452426644,
        "RAAN(deg)": 90.0034430310423,
        "Satellite Name": "Starlink Shell 3 1761",
        "Satellite Number": 1761,
        "Semi-Major Axis(m)": 6938478.169268562,
        "Time(s)": 330
    },
    {
        "Altitude(m)": 569062.1176342446,
        "Argument of Periapsis(deg)": -0.01348258713370284,
        "Eccentricity": 0.0,
        "Inclination(deg)": 97.0,
        "Latitude(deg)": 39.603817350792035,
        "Longitude(deg)": -17.185127318243204,
        "Mean Anomaly(deg)": 39.88689072197149,
        "RAAN(deg)": 90.0035473653163,
        "Satellite Name": "Starlink Shell 3 1761",
        "Satellite Number": 1761,
        "Semi-Major Axis(m)": 6938478.169268562,
        "Time(s)": 340
    },
    {
        "Altitude(m)": 569193.4925877287,
        "Argument of Periapsis(deg)": -0.013879133814105863,
        "Eccentricity": 0.0,
        "Inclination(deg)": 97.0,
        "Latitude(deg)": 40.22254396677765,
        "Longitude(deg)": -17.355911372307613,
        "Mean Anomaly(deg)": 40.51236691967651,
        "RAAN(deg)": 90.0036516995903,
        "Satellite Name": "Starlink Shell 3 1761",
        "Satellite Number": 1761,
        "Semi-Major Axis(m)": 6938478.169268562,
        "Time(s)": 350
    },
    {
        "Altitude(m)": 569326.106074036,
        "Argument of Periapsis(deg)": -0.01427568049450889,
        "Eccentricity": 0.0,
        "Inclination(deg)": 97.0,
        "Latitude(deg)": 40.84105131898346,
        "Longitude(deg)": -17.5290593995921,
        "Mean Anomaly(deg)": 41.137843117381586,
        "RAAN(deg)": 90.00375603386433,
        "Satellite Name": "Starlink Shell 3 1761",
        "Satellite Number": 1761,
        "Semi-Major Axis(m)": 6938478.169268562,
        "Time(s)": 360
    },
    {
        "Altitude(m)": 569459.8725903583,
        "Argument of Periapsis(deg)": -0.014672227174911913,
        "Eccentricity": 0.0,
        "Inclination(deg)": 97.0,
        "Latitude(deg)": 41.459333095194005,
        "Longitude(deg)": -17.704667923296448,
        "Mean Anomaly(deg)": 41.763319315086605,
        "RAAN(deg)": 90.00386036813833,
        "Satellite Name": "Starlink Shell 3 1761",
        "Satellite Number": 1761,
        "Semi-Major Axis(m)": 6938478.169268562,
        "Time(s)": 370
    }
]